NORAD_CAT_ID,OBJECT_NAME,OBJECT_TYPE,EPOCH,MEAN_MOTION,ECCENTRICITY,INCLINATION,RA_OF_ASC_NODE,ARG_OF_PERICENTER,MEAN_ANOMALY,BSTAR,MEAN_MOTION_DOT,MEAN_MOTION_DDOT,TLE_LINE0,TLE_LINE1,TLE_LINE2,SEMIMAJOR_AXIS,PERIOD,APOGEE,PERIGEE,DECAYED
49445.0,STARLINK-3122,PAYLOAD,2022-08-10 13:53:54,15.08830692,0.0001491,53.2177,326.9845,78.2117,281.9043,-0.00019779,-3.434e-05,0.0,0 STARLINK-3122,1 49445U 21104AP  22222.57910668 -.00003434  00000-0 -19779-3 0  9998,2 49445  53.2177 326.9845 0001491  78.2117 281.9043 15.08830692 42523,6917.909000000002,95.438,540.805,538.742,0.0
49445.0,STARLINK-3122,PAYLOAD,2022-08-10 15:29:17,15.08831628,0.0001512,53.2173,326.6871,71.8241,288.2916,-0.00018905,-3.295e-05,0.0,0 STARLINK-3122,1 49445U 21104AP  22222.64534630 -.00003295  00000-0 -18905-3 0  9992,2 49445  53.2173 326.6871 0001512  71.8241 288.2916 15.08831628 41456,6917.906,95.438,540.817,538.725,0.0
49445.0,STARLINK-3122,PAYLOAD,2022-08-11 12:09:18,15.08830917,0.0001365999999999,53.2168,322.8202,60.9618,299.1511,2.6955e-05,1.41e-06,0.0,0 STARLINK-3122,1 49445U 21104AP  22223.50646272  .00000141  00000-0  26955-4 0  9994,2 49445  53.2168 322.8202 0001366  60.9618 299.1511 15.08830917 41586,6917.908,95.438,540.7180000000002,538.828,0.0
49445.0,STARLINK-3122,PAYLOAD,2022-08-11 15:20:04,15.08829495,0.000135,53.217,322.2255,69.0384,291.0752,7.4479e-05,8.97e-06,0.0,0 STARLINK-3122,1 49445U 21104AP  22223.63894290  .00000897  00000-0  74479-4 0  9995,2 49445  53.2170 322.2255 0001350  69.0384 291.0752 15.08829495 42683,6917.9119999999975,95.438,540.711,538.844,0.0
49445.0,STARLINK-3122,PAYLOAD,2022-08-12 12:00:04,15.08840538,0.0001353,53.2169,318.3598,69.1623,290.9514,0.00022296,3.262e-05,0.0,0 STARLINK-3122,1 49445U 21104AP  22224.50005529  .00003262  00000-0  22296-3 0  9999,2 49445  53.2169 318.3598 0001353  69.1623 290.9514 15.08840538 41737,6917.879,95.438,540.68,538.808,0.0
49445.0,STARLINK-3122,PAYLOAD,2022-08-12 13:35:28,15.08837229,0.000139,53.217,318.0621,69.7967,290.3175,0.00019528,2.821e-05,0.0,0 STARLINK-3122,1 49445U 21104AP  22224.56629871  .00002821  00000-0  19528-3 0  9991,2 49445  53.2170 318.0621 0001390  69.7967 290.3175 15.08837229 41742,6917.889,95.438,540.715,538.7919999999998,0.0
49445.0,STARLINK-3122,PAYLOAD,2022-08-13 13:26:15,15.08839776,0.0001425,53.2169,313.6018,70.2199,289.8946,6.5484e-05,7.54e-06,0.0,0 STARLINK-3122,1 49445U 21104AP  22225.55990325  .00000754  00000-0  65484-4 0  9992,2 49445  53.2169 313.6018 0001425  70.2199 289.8946 15.08839776 41898,6917.880999999999,95.438,540.732,538.76,0.0
49445.0,STARLINK-3122,PAYLOAD,2022-08-14 05:20:06,15.08850462,0.0001476,53.2169,310.6279,74.226,285.8894,7.3508e-06,-1.71e-06,0.0,0 STARLINK-3122,1 49445U 21104AP  22226.22229614 -.00000171  00000-0  73508-5 0  9994,2 49445  53.2169 310.6279 0001476  74.2260 285.8894 15.08850462 43078,6917.848000000001,95.437,540.734,538.692,0.0
49445.0,STARLINK-3122,PAYLOAD,2022-08-14 11:41:38,15.08848805,0.0001483,53.2169,309.4385,74.9052,285.2104,-7.0205e-06,-4e-06,0.0,0 STARLINK-3122,1 49445U 21104AP  22226.48725583 -.00000400  00000-0 -70205-5 0  9995,2 49445  53.2169 309.4385 0001483  74.9052 285.2104 15.08848805 42037,6917.853,95.437,540.744,538.693,0.0
49445.0,STARLINK-3122,PAYLOAD,2022-08-14 14:52:25,15.08846649,0.0001496,53.2165,308.8438,67.0679,293.0471,-3.6788e-05,-8.74e-06,0.0,0 STARLINK-3122,1 49445U 21104AP  22226.61973780 -.00000874  00000-0 -36788-4 0  9996,2 49445  53.2165 308.8438 0001496  67.0679 293.0471 15.08846649 42057,6917.86,95.437,540.76,538.69,0.0
49445.0,STARLINK-3122,PAYLOAD,2022-08-15 05:10:54,15.08832848,0.0001578,53.2164,306.1674,68.41199999999999,291.704,-2.537800000000001e-05,-6.92e-06,0.0,0 STARLINK-3122,1 49445U 21104AP  22227.21590634 -.00000692  00000-0 -25378-4 0  9997,2 49445  53.2164 306.1674 0001578  68.4120 291.7040 15.08832848 43229,6917.901999999999,95.438,540.859,538.6759999999998,0.0
49445.0,STARLINK-3122,PAYLOAD,2022-08-15 09:57:03,15.08836797,0.0001594,53.2165,305.2756,68.2071,291.9091,8.8816e-06,-1.47e-06,0.0,0 STARLINK-3122,1 49445U 21104AP  22227.41462326 -.00000147  00000-0  88816-5 0  9996,2 49445  53.2165 305.2756 0001594  68.2071 291.9091 15.08836797 42170,6917.89,95.438,540.8580000000002,538.6519999999998,0.0
49445.0,STARLINK-3122,PAYLOAD,2022-08-15 14:43:12,15.08838781,0.00016,53.2165,304.3834,68.6244,291.4919,2.3313e-05,8.3e-07,0.0,0 STARLINK-3122,1 49445U 21104AP  22227.61334169  .00000083  00000-0  23313-4 0  9999,2 49445  53.2165 304.3834 0001600  68.6244 291.4919 15.08838781 42204,6917.884,95.438,540.856,538.6419999999998,0.0
49445.0,STARLINK-3122,PAYLOAD,2022-08-16 11:23:13,15.08833066,0.0001541,53.2167,300.5177,75.6346,284.4817,-3.8084e-05,-8.94e-06,0.0,0 STARLINK-3122,1 49445U 21104AP  22228.47446738 -.00000894  00000-0 -38084-4 0  9993,2 49445  53.2167 300.5177 0001541  75.6346 284.4817 15.08833066 43413,6917.901999999999,95.438,540.8330000000002,538.701,0.0
49445.0,STARLINK-3122,PAYLOAD,2022-08-16 12:58:37,15.08831863,0.0001539,53.2166,300.2205,73.7321,286.3841,-4.6143e-05,-1.022e-05,0.0,0 STARLINK-3122,1 49445U 21104AP  22228.54070873 -.00001022  00000-0 -46143-4 0  9993,2 49445  53.2166 300.2205 0001539  73.7321 286.3841 15.08831863 42342,6917.905,95.438,540.835,538.706,0.0
49445.0,STARLINK-3122,PAYLOAD,2022-08-17 11:14:00,15.088397699999998,0.0001385999999999,53.217,296.0569,85.2977,274.8173,5.7356e-05,6.25e-06,0.0,0 STARLINK-3122,1 49445U 21104AP  22229.46806271  .00000625  00000-0  57356-4 0  9998,2 49445  53.2170 296.0569 0001386  85.2977 274.8173 15.08839770 43567,6917.880999999999,95.438,540.705,538.7869999999998,0.0
49445.0,STARLINK-3122,PAYLOAD,2022-08-18 07:54:01,15.08832888,0.000144,53.2161,292.192,67.6457,292.4688,8.1095e-05,1.003e-05,0.0,0 STARLINK-3122,1 49445U 21104AP  22230.32918929  .00001003  00000-0  81095-4 0  9997,2 49445  53.2161 292.1920 0001440  67.6457 292.4688 15.08832888 43697,6917.901999999999,95.438,540.763,538.771,0.0
49445.0,STARLINK-3122,PAYLOAD,2022-08-18 11:04:48,15.08833646,0.0001453999999999,53.216,291.5973,62.5093,297.6047,7.0105e-05,8.28e-06,0.0,0 STARLINK-3122,1 49445U 21104AP  22230.46167002  .00000828  00000-0  70105-4 0  9994,2 49445  53.2160 291.5973 0001454  62.5093 297.6047 15.08833646 42634,6917.9,95.438,540.771,538.759,0.0
49445.0,STARLINK-3122,PAYLOAD,2022-08-19 02:58:38,15.08846136,0.0001401,53.216,288.6238,66.6652,293.4487,8.0536e-05,9.94e-06,0.0,0 STARLINK-3122,1 49445U 21104AP  22231.12406188  .00000994  00000-0  80536-4 0  9992,2 49445  53.2160 288.6238 0001401  66.6652 293.4487 15.08846136 43814,6917.861999999999,95.437,540.696,538.757,0.0
49445.0,STARLINK-3122,PAYLOAD,2022-08-19 10:55:35,15.08838245,0.0001435,53.216,287.1363,63.1038,297.0101,8.508099999999999e-06,-1.53e-06,0.0,0 STARLINK-3122,1 49445U 21104AP  22231.45526939 -.00000153  00000-0  85081-5 0  9994,2 49445  53.2160 287.1363 0001435  63.1038 297.0101 15.08838245 42784,6917.886,95.438,540.743,538.758,0.0
49445.0,STARLINK-3122,PAYLOAD,2022-08-20 10:46:23,15.08828861,0.0001476,53.2157,282.675,54.7698,305.3432,-3.6076e-05,-8.62e-06,0.0,0 STARLINK-3122,1 49445U 21104AP  22232.44888114 -.00000862  00000-0 -36076-4 0  9997,2 49445  53.2157 282.6750 0001476  54.7698 305.3432 15.08828861 42933,6917.9140000000025,95.438,540.8009999999998,538.758,0.0
49445.0,STARLINK-3122,PAYLOAD,2022-08-21 10:37:10,15.08831852,0.0001441999999999,53.2157,278.2151,60.0829,300.0306,3.225e-05,2.25e-06,0.0,0 STARLINK-3122,1 49445U 21104AP  22233.44248123  .00000225  00000-0  32250-4 0  9999,2 49445  53.2157 278.2151 0001442  60.0829 300.0306 15.08831852 43081,6917.905,95.438,540.768,538.773,0.0
49445.0,STARLINK-3122,PAYLOAD,2022-08-21 20:09:29,15.08832845,0.0001416,53.2155,276.4303,57.5539,302.559,6.4172e-05,7.33e-06,0.0,0 STARLINK-3122,1 49445U 21104AP  22233.83992134  .00000733  00000-0  64172-4 0  9992,2 49445  53.2155 276.4303 0001416  57.5539 302.5590 15.08832845 43140,6917.901999999999,95.438,540.747,538.788,0.0
49445.0,STARLINK-3122,PAYLOAD,2022-08-22 08:52:34,15.08834823,0.0001426,53.2157,274.0513,57.7275,302.3855,0.00010321,1.355e-05,0.0,0 STARLINK-3122,1 49445U 21104AP  22234.36984074  .00001355  00000-0  10321-3 0  9992,2 49445  53.2157 274.0513 0001426  57.7275 302.3855 15.08834823 43228,6917.896,95.438,540.748,538.775,0.0
49445.0,STARLINK-3122,PAYLOAD,2022-08-22 20:00:16,15.08837759,0.0001459,53.2158,271.9698,57.4486,302.6647,0.00010485,1.381e-05,0.0,0 STARLINK-3122,1 49445U 21104AP  22234.83351962  .00001381  00000-0  10485-3 0  9998,2 49445  53.2158 271.9698 0001459  57.4486 302.6647 15.08837759 44376,6917.887,95.438,540.762,538.743,0.0
49445.0,STARLINK-3122,PAYLOAD,2022-08-23 10:18:44,15.08842957,0.0001460999999999,53.2155,269.2934,56.6428,303.4704,8.0191e-05,9.89e-06,0.0,0 STARLINK-3122,1 49445U 21104AP  22235.42967626  .00000989  00000-0  80191-4 0  9999,2 49445  53.2155 269.2934 0001461  56.6428 303.4704 15.08842957 43385,6917.871,95.437,540.747,538.726,0.0
49445.0,STARLINK-3122,PAYLOAD,2022-08-23 19:51:02,15.0884577,0.0001486,53.2155,267.5092,56.5416,303.5719,8.7441e-05,1.104e-05,0.0,0 STARLINK-3122,1 49445U 21104AP  22235.82711320  .00001104  00000-0  87441-4 0  9996,2 49445  53.2155 267.5092 0001486  56.5416 303.5719 15.08845770 43444,6917.863,95.437,540.756,538.7,0.0
49445.0,STARLINK-3122,PAYLOAD,2022-08-24 05:23:22,15.08836657,0.0001516,53.2156,265.7251,57.4966,302.6172,-1.6596e-05,-5.52e-06,0.0,0 STARLINK-3122,1 49445U 21104AP  22236.22456154 -.00000552  00000-0 -16596-4 0  9993,2 49445  53.2156 265.7251 0001516  57.4966 302.6172 15.08836657 44589,6917.891,95.438,540.804,538.707,0.0
49445.0,STARLINK-3122,PAYLOAD,2022-08-24 08:34:08,15.08835972,0.0001511,53.2155,265.1303,57.3016,302.8122,-3.880800000000001e-05,-9.05e-06,0.0,0 STARLINK-3122,1 49445U 21104AP  22236.35704276 -.00000905  00000-0 -38808-4 0  9990,2 49445  53.2155 265.1303 0001511  57.3016 302.8122 15.08835972 43529,6917.893,95.438,540.803,538.712,0.0
